{
  "type": "FeatureCollection",
  "features": [
    {
      "type": "Feature",
      "properties": {
        "norad_id": 66661,
        "name": "SNUGLITE-III",
        "group": "last-30-days",
        "lat": -36.950463379853005,
        "lon": -70.08651507497325,
        "alt_km": 592.6213365323574,
        "timestamp": "2025-12-22T23:36:19.409568+00:00",
        "meta_object_name": "SNUGLITE-III",
        "meta_object_id": "2025-274M",
        "meta_epoch": "2025-12-22T07:41:20.291136",
        "meta_mean_motion": 14.9314392,
        "meta_eccentricity": 0.00132803,
        "meta_inclination": 97.7405,
        "meta_ra_of_asc_node": 283.3886,
        "meta_arg_of_pericenter": 246.812,
        "meta_mean_anomaly": 113.1701,
        "meta_ephemeris_type": 0,
        "meta_classification_type": "U",
        "meta_norad_cat_id": 66661,
        "meta_element_set_no": 999,
        "meta_rev_at_epoch": 383,
        "meta_bstar": 0.00019528622,
        "meta_mean_motion_dot": 1.983e-05,
        "meta_mean_motion_ddot": 0,
        "tle_line1": "1 66661U 25274M   25356.32037374  .00001983  00000+0  19529-3 0  9994",
        "tle_line2": "2 66661  97.7405 283.3886 0013280 246.8120 113.1701 14.93143920  3838"
      },
      "geometry": {
        "type": "Point",
        "coordinates": [
          -70.08651507497325,
          -36.950463379853005
        ]
      }
    },
    {
      "type": "Feature",
      "properties": {
        "norad_id": 66662,
        "name": "2025-274N",
        "group": "last-30-days",
        "lat": -31.658616896677184,
        "lon": -71.14512102397164,
        "alt_km": 593.0002951057222,
        "timestamp": "2025-12-22T23:36:19.409580+00:00",
        "meta_object_name": "2025-274N",
        "meta_object_id": "2025-274N",
        "meta_epoch": "2025-12-22T07:39:56.077056",
        "meta_mean_motion": 14.93198651,
        "meta_eccentricity": 0.00137484,
        "meta_inclination": 97.7407,
        "meta_ra_of_asc_node": 283.3901,
        "meta_arg_of_pericenter": 246.6235,
        "meta_mean_anomaly": 113.3538,
        "meta_ephemeris_type": 0,
        "meta_classification_type": "U",
        "meta_norad_cat_id": 66662,
        "meta_element_set_no": 999,
        "meta_rev_at_epoch": 383,
        "meta_bstar": 0.00020990322,
        "meta_mean_motion_dot": 2.139e-05,
        "meta_mean_motion_ddot": 0,
        "tle_line1": "1 66662U 25274N   25356.31939904  .00002139  00000+0  20990-3 0  9992",
        "tle_line2": "2 66662  97.7407 283.3901 0013748 246.6235 113.3538 14.93198651  3834"
      },
      "geometry": {
        "type": "Point",
        "coordinates": [
          -71.14512102397164,
          -31.658616896677184
        ]
      }
    },
    {
      "type": "Feature",
      "properties": {
        "norad_id": 66663,
        "name": "KSLV-II R/B",
        "group": "last-30-days",
        "lat": 6.643245766715913,
        "lon": -76.67636748330695,
        "alt_km": 571.2960443663333,
        "timestamp": "2025-12-22T23:36:19.409590+00:00",
        "meta_object_name": "KSLV-II R/B",
        "meta_object_id": "2025-274P",
        "meta_epoch": "2025-12-22T01:07:29.295840",
        "meta_mean_motion": 14.97514647,
        "meta_eccentricity": 0.00594924,
        "meta_inclination": 97.7422,
        "meta_ra_of_asc_node": 283.3033,
        "meta_arg_of_pericenter": 286.9981,
        "meta_mean_anomaly": 72.4727,
        "meta_ephemeris_type": 0,
        "meta_classification_type": "U",
        "meta_norad_cat_id": 66663,
        "meta_element_set_no": 999,
        "meta_rev_at_epoch": 380,
        "meta_bstar": 0.0016588708,
        "meta_mean_motion_dot": 0.00020039,
        "meta_mean_motion_ddot": 0,
        "tle_line1": "1 66663U 25274P   25356.04686685  .00020039  00000+0  16589-2 0  9995",
        "tle_line2": "2 66663  97.7422 283.3033 0059492 286.9981  72.4727 14.97514647  3802"
      },
      "geometry": {
        "type": "Point",
        "coordinates": [
          -76.67636748330695,
          6.643245766715913
        ]
      }
    },
    {
      "type": "Feature",
      "properties": {
        "norad_id": 66664,
        "name": "SOYUZ-MS 28",
        "group": "last-30-days",
        "lat": -20.101383704817206,
        "lon": 74.89386202617378,
        "alt_km": 418.9406161543902,
        "timestamp": "2025-12-22T23:36:19.409600+00:00",
        "meta_object_name": "SOYUZ-MS 28",
        "meta_object_id": "2025-275A",
        "meta_epoch": "2025-12-22T12:53:01.598784",
        "meta_mean_motion": 15.49728746,
        "meta_eccentricity": 0.00031539,
        "meta_inclination": 51.6324,
        "meta_ra_of_asc_node": 93.9618,
        "meta_arg_of_pericenter": 285.9755,
        "meta_mean_anomaly": 74.0886,
        "meta_ephemeris_type": 0,
        "meta_classification_type": "U",
        "meta_norad_cat_id": 66664,
        "meta_element_set_no": 999,
        "meta_rev_at_epoch": 128,
        "meta_bstar": 0.00021249665,
        "meta_mean_motion_dot": 0.00011576,
        "meta_mean_motion_ddot": 0,
        "tle_line1": "1 66664U 25275A   25356.53682406  .00011576  00000+0  21250-3 0  9996",
        "tle_line2": "2 66664  51.6324  93.9618 0003153 285.9755  74.0886 15.49728746  1287"
      },
      "geometry": {
        "type": "Point",
        "coordinates": [
          74.89386202617378,
          -20.101383704817206
        ]
      }
    },
    {
      "type": "Feature",
      "properties": {
        "norad_id": 66666,
        "name": "FORMOSAT-8A",
        "group": "last-30-days",
        "lat": 80.6797767272597,
        "lon": -56.156150796600876,
        "alt_km": 558.7449473198021,
        "timestamp": "2025-12-22T23:36:19.409611+00:00",
        "meta_object_name": "FORMOSAT-8A",
        "meta_object_id": "2025-276A",
        "meta_epoch": "2025-12-22T10:22:36.748128",
        "meta_mean_motion": 15.00342143,
        "meta_eccentricity": 0.000384,
        "meta_inclination": 97.6579,
        "meta_ra_of_asc_node": 68.2335,
        "meta_arg_of_pericenter": 194.3115,
        "meta_mean_anomaly": 165.8,
        "meta_ephemeris_type": 0,
        "meta_classification_type": "U",
        "meta_norad_cat_id": 66666,
        "meta_element_set_no": 999,
        "meta_rev_at_epoch": 354,
        "meta_bstar": 0.00040111361,
        "meta_mean_motion_dot": 4.975e-05,
        "meta_mean_motion_ddot": 0,
        "tle_line1": "1 66666U 25276A   25356.43236977  .00004975  00000+0  40111-3 0  9998",
        "tle_line2": "2 66666  97.6579  68.2335 0003840 194.3115 165.8000 15.00342143  3546"
      },
      "geometry": {
        "type": "Point",
        "coordinates": [
          -56.156150796600876,
          80.6797767272597
        ]
      }
    },
    {
      "type": "Feature",
      "properties": {
        "norad_id": 66667,
        "name": "PELICAN-5",
        "group": "last-30-days",
        "lat": 29.3914988354912,
        "lon": -107.18509271389779,
        "alt_km": 506.5695325333045,
        "timestamp": "2025-12-22T23:36:19.409623+00:00",
        "meta_object_name": "PELICAN-5",
        "meta_object_id": "2025-276B",
        "meta_epoch": "2025-12-22T11:52:12.709056",
        "meta_mean_motion": 15.17771207,
        "meta_eccentricity": 0.00063666,
        "meta_inclination": 97.453,
        "meta_ra_of_asc_node": 68.1048,
        "meta_arg_of_pericenter": 163.2465,
        "meta_mean_anomaly": 196.898,
        "meta_ephemeris_type": 0,
        "meta_classification_type": "U",
        "meta_norad_cat_id": 66667,
        "meta_element_set_no": 999,
        "meta_rev_at_epoch": 360,
        "meta_bstar": 0.005866406,
        "meta_mean_motion_dot": 0.0012035,
        "meta_mean_motion_ddot": 0,
        "tle_line1": "1 66667U 25276B   25356.49459154  .00120350  00000+0  58664-2 0  9996",
        "tle_line2": "2 66667  97.4530  68.1048 0006366 163.2465 196.8980 15.17771207  3604"
      },
      "geometry": {
        "type": "Point",
        "coordinates": [
          -107.18509271389779,
          29.3914988354912
        ]
      }
    },
    {
      "type": "Feature",
      "properties": {
        "norad_id": 66668,
        "name": "TRANSPORTER-15C",
        "group": "last-30-days",
        "lat": 73.83339266296969,
        "lon": 41.75483007470231,
        "alt_km": 510.676389459848,
        "timestamp": "2025-12-22T23:36:19.409634+00:00",
        "meta_object_name": "TRANSPORTER-15C",
        "meta_object_id": "2025-276C",
        "meta_epoch": "2025-12-22T12:12:24.823296",
        "meta_mean_motion": 15.18687942,
        "meta_eccentricity": 0.00169542,
        "meta_inclination": 97.43,
        "meta_ra_of_asc_node": 68.0421,
        "meta_arg_of_pericenter": 286.8169,
        "meta_mean_anomaly": 73.1206,
        "meta_ephemeris_type": 0,
        "meta_classification_type": "U",
        "meta_norad_cat_id": 66668,
        "meta_element_set_no": 999,
        "meta_rev_at_epoch": 360,
        "meta_bstar": 0.037723283,
        "meta_mean_motion_dot": 0.00840908,
        "meta_mean_motion_ddot": 0,
        "tle_line1": "1 66668U 25276C   25356.50862064  .00840908  00000+0  37723-1 0  9997",
        "tle_line2": "2 66668  97.4300  68.0421 0016954 286.8169  73.1206 15.18687942  3602"
      },
      "geometry": {
        "type": "Point",
        "coordinates": [
          41.75483007470231,
          73.83339266296969
        ]
      }
    }
  ]
}